ONEWEB-0199             
1 48234U 21031AA  25291.20688805  .00000267  00000+0  68640-3 0  9995
2 48234  87.9040 337.8928 0001747 100.5395 259.5931 13.14503751216477
ONEWEB-0203             
1 48235U 21031AB  25291.19738345  .00000284  00000+0  73130-3 0  9998
2 48235  87.9038 337.8961 0001910 105.7541 254.3800 13.14502438216484
ONEWEB-0197             
1 48236U 21031AC  25291.17186677 -.00000172  00000+0 -49774-3 0  9997
2 48236  87.9036 337.8997 0001721  86.6281 273.5045 13.14504161216399
ONEWEB-0194             
1 48237U 21031AD  25291.15139513 -.00000086  00000+0 -26569-3 0  9994
2 48237  87.9040 337.9193 0001697 103.0105 257.1215 13.14502803216562
ONEWEB-0193             
1 48238U 21031AE  25291.16723402  .00000763  00000+0  20225-2 0  9994
2 48238  87.9024 337.9126 0001602 107.6883 252.4422 13.14512159216518
ONEWEB-0191             
1 48239U 21031AF  25291.17834231  .00000015  00000+0  54663-5 0  9995
2 48239  87.9045 337.8948 0001783  97.5551 262.5781 13.14504000216372
ONEWEB-0195             
1 48240U 21031AG  25291.15535592 -.00000074  00000+0 -23326-3 0  9990
2 48240  87.9049 337.8959 0002256  99.9583 260.1801 13.14501432216358
ONEWEB-0201             
1 48241U 21031AH  25291.14360804  .00000064  00000+0  13930-3 0  9999
2 48241  87.9032 337.9458 0002046  89.4995 270.6369 13.14502900216585
